id,org,name,country,lat,lon,gmapurl,area_code
arg-mardelplata-faro,[MACN](https://www.macnconicet.gob.ar/investigacion/ecologia/),Mar del Plata - Faro,arg,-38.0939222,-57.541275,"http://maps.google.com/maps?q=-38.0939222,-57.541275&ll=-38.0939222,-57.541275&z=6",40014
arg-mardelplata-playachica,[MACN](https://www.macnconicet.gob.ar/investigacion/ecologia/),Mar del Plata - Playa Chica ,arg,-38.0203,-57.5653,"http://maps.google.com/maps?q=-38.0203,-57.5653&ll=-38.0203,-57.5653&z=6",40014
arg-puertomadryn1,[IBIOMAR/CONICET](https://www.larbim.com.ar/),[Punta Este](http://www.northeastern.edu/helmuthlab/Research/gigapan/argentina.html#_ga=2.176170668.804414391.1602182240-113605171.1602182239),arg,-42.78511,-64.95264,"http://maps.google.com/maps?q=-42.78511,-64.95264&ll=-42.78511,-64.95264&z=6",40014
arg-puertomadryn2,[IBIOMAR/CONICET](https://www.larbim.com.ar/),Punta Cuevas,arg,-42.77986,-65.00171,"http://maps.google.com/maps?q=-42.77986,-65.00171&ll=-42.77986,-65.00171&z=6",40014
arg-puertomadryn3,[IBIOMAR/CONICET](https://www.larbim.com.ar/),[Punta Loma](http://www.northeastern.edu/helmuthlab/Research/gigapan/argentina.html#_ga=2.176170668.804414391.1602182240-113605171.1602182239),arg,-42.8112,-64.9017,"http://maps.google.com/maps?q=-42.8112,-64.9017&ll=-42.8112,-64.9017&z=7",40014
ata-antarctica-site1,[U. Concepcion](https://www.algalab.com/index2.html),Antarctica - Site 1 ,ata,-62.1989,-58.9494,"http://maps.google.com/maps?q=-62.1989,-58.9494&ll=-62.1989,-58.9494&z=6",40061
ata-antarctica-site2,[U. Concepcion](https://www.algalab.com/index2.html),Antarctica - Site 2 ,ata,-62.1858,-58.8732,"http://maps.google.com/maps?q=-62.1858,-58.8732&ll=-62.1858,-58.8732&z=6",40061
bra-arraialdocabo-atalaia,[LECAR - UFF](http://www.lecar.uff.br/index.html),Arraial do Cabo - Atalaia ,bra,-22.9863,-42.01,"http://maps.google.com/maps?q=-22.9863,-42.01&ll=-22.9863,-42.01&z=6",40015
bra-arraialdocabo-fortaleza,[LECAR - UFF](http://www.lecar.uff.br/index.html),Arraial do Cabo - Fortaleza ,bra,-22.9687,-42.015,"http://maps.google.com/maps?q=-22.9687,-42.015&ll=-22.9687,-42.015&z=6",40015
bra-arraialdocabo-prainha,[LECAR - UFF](http://www.lecar.uff.br/index.html),Arraial do Cabo - Prainha ,bra,-22.9602,-42.0193,"http://maps.google.com/maps?q=-22.9602,-42.0193&ll=-22.9602,-42.0193&z=6",40015
bra-arraialdocabo-praiagrande,[NUPEM - UFRJ](https://www.macae.ufrj.br/nupem/index.php),Arraial do Cabo - Praia Grande ,bra,-22.964,-42.042,"http://maps.google.com/maps?q=-22.964,-42.042&ll=-22.964,-42.042&z=6",40015
bra-costadasalgas-enseadadasgarcas,[Bentos - UFES](http://bentos.ufes.br/),Costa das Algas - Enseada das Garcas ,bra,-20.0369,-40.164,"http://maps.google.com/maps?q=-20.0369,-40.164&ll=-20.0369,-40.164&z=6",40016
bra-costadasalgas-gramute,[Bentos - UFES](http://bentos.ufes.br/),Costa das Algas - Gramute,bra,-19.9663,-40.134,"http://maps.google.com/maps?q=-19.9663,-40.134&ll=-19.9663,-40.134&z=6",40016
bra-costadasalgas-costabela,[Bentos - UFES](http://bentos.ufes.br/),Costa das Algas - Costa Bela,bra,-20.0726,-40.1752,"http://maps.google.com/maps?q=-20.072603,-40.175153&ll=-20.072603,-40.175153&z=6",40016
bra-encantadasnorth,[PGSISCO - UFPR](https://www.facebook.com/PGSISCO/),Encantadas North ,bra,-25.573,-48.3098,"http://maps.google.com/maps?q=-25.573,-48.3098&ll=-25.573,-48.3098&z=6",40015
bra-encantadassouth,[PGSISCO - UFPR](http://www.cem.ufpr.br/portal/pgsisco/selecao-discente/),Encantadas South ,bra,-25.5735,-48.3107,"http://maps.google.com/maps?q=-25.5735,-48.3107&ll=-25.5735,-48.3107&z=6",40015
bra-atami,[PGSISCO - UFPR](http://www.cem.ufpr.br/portal/pgsisco/selecao-discente/),Atami,bra,-25.59734,-48.380914,"http://maps.google.com/maps?q=-25.59734,-48.380914&ll=-25.59734,-48.380914&z=6",40015
bra-fernandodenoronha-boldro,[LECAR - UFF](http://www.lecar.uff.br/index.html),Fernando de Noronha - Boldro ,bra,-3.8505,-32.4238,"http://maps.google.com/maps?q=-3.8505,-32.4238&ll=-3.8505,-32.4238&z=6",21000
bra-jurubatibanationalpark,[NUPEM - UFRJ](https://www.macae.ufrj.br/nupem/index.php),Jurubatiba National Park ,bra,-22.29,-41.67,"http://maps.google.com/maps?q=-22.29,-41.67&ll=-22.29,-41.67&z=6",40016
bra-saintpeterandsaintpaularchipelago-enseada,[LECAR - UFF](http://www.lecar.uff.br/index.html),Saint Peter and Saint Paul Archipelago - Enseada ,bra,-0.9169,-29.3458,"http://maps.google.com/maps?q=-0.9169,-29.3458&ll=-0.9169,-29.3458&z=6",21000
bra-saosebastiao-baleeirohead,[CEBIMAR - USP](http://npbiomar.cebimar.usp.br/en/),Sao Sebastiao - Baleeiro Head ,bra,-23.8292,-45.4237,"http://maps.google.com/maps?q=-23.8292,-45.4237&ll=-23.8292,-45.4237&z=6",40015
bra-saosebastiao-feiticeira,[CEBIMAR - USP](http://npbiomar.cebimar.usp.br/en/),Sao Sebastiao - Feiticeira ,bra,-23.8436,-45.4076,"http://maps.google.com/maps?q=-23.8436,-45.4076&ll=-23.8436,-45.4076&z=6",40015
bra-saosebastiao-itassuceisland,[CEBIMAR - USP](http://npbiomar.cebimar.usp.br/en/),Sao Sebastiao - Itassuce Island ,bra,-23.8319,-45.4436,"http://maps.google.com/maps?q=-23.8319,-45.4436&ll=-23.8319,-45.4436&z=6",40015
chl-bahiadevalparaiso-montemar,[U. Valparaiso](https://cienciasdelmar.uv.cl/index.php),Bahia de Valparariso - Montemar ,chl,-32.9587,-71.5492,"http://maps.google.com/maps?q=-32.9587,-71.5492&ll=-32.9587,-71.5492&z=6",40013
chl-concepcion-cocholguenorte,[U. Concepcion](https://www.algalab.com/index2.html),Concepcion - Cocholgue Norte ,chl,-36.5941,-72.9786,"http://maps.google.com/maps?q=-36.5941,-72.9786&ll=-36.5941,-72.9786&z=6",40013
chl-concepcion-cocholguesur,[U. Concepcion](https://www.algalab.com/index2.html),Concepcion - Cocholgue Sur ,chl,-36.6091,-72.9805,"http://maps.google.com/maps?q=-36.6091,-72.9805&ll=-36.6091,-72.9805&z=6",40013
chl-concepcion-dichato-coliumo,[U. Concepcion](https://www.algalab.com/index2.html),Concepcion - Dichato / Coliumo ,chl,-36.5408,-72.9346,"http://maps.google.com/maps?q=-36.5408,-72.9346&ll=-36.5408,-72.9346&z=6",40013
chl-puntaarenas-bahiamansa,[U. Concepcion](https://www.algalab.com/index2.html),Punta Arenas - Bahpa Mansa ,chl,-53.6125,-70.9284,"http://maps.google.com/maps?q=-53.6125,-70.9284&ll=-53.6125,-70.9284&z=6",40013
col-islagorgona-lamancora,[U. del Valle](https://lithos.correounivalle.edu.co/),Isla Gorgona - La Mancora ,col,2.9591,-78.1979,"http://maps.google.com/maps?q=2.9591,-78.1979&ll=2.9591,-78.1979&z=6",40011
col-islagorgona-laventana,[U. del Valle](https://lithos.correounivalle.edu.co/),Isla Gorgona - La Ventana ,col,2.9341,-78.2017,"http://maps.google.com/maps?q=2.9341,-78.2017&ll=2.9341,-78.2017&z=6",40011
col-islagorgona-playaverde,[U. del Valle](https://lithos.correounivalle.edu.co/),Isla Gorgona - Playa Verde ,col,2.9472,-78.1979,"http://maps.google.com/maps?q=2.9472,-78.1979&ll=2.9472,-78.1979&z=6",40011
cri-esmeralda,[CIMAR](http://www.cimar.ucr.ac.cr/index.php),Esmeralda ,cri,10.5916,-85.6637,"http://maps.google.com/maps?q=10.5916,-85.6637&ll=10.5916,-85.6637&z=6",40011
cri-puntamona,[CIMAR](http://www.cimar.ucr.ac.cr/index.php),Punta Mona ,cri,9.6399,-82.6481,"http://maps.google.com/maps?q=9.6399,-82.6481&ll=9.6399,-82.6481&z=6",40011
cri-sanmiguel,[CIMAR](http://www.cimar.ucr.ac.cr/index.php),San Miguel ,cri,9.5787,-85.1375,"http://maps.google.com/maps?q=9.5787,-85.1375&ll=9.5787,-85.1375&z=6",40011
ecu-angermeyerpoint-galapagos,[Charles Darwin F.](https://www.darwinfoundation.org/en/),Angermeyer Point - Galapagos Islands ,ecu,-0.752,-90.3094,"http://maps.google.com/maps?q=-0.752,-90.3094&ll=-0.752,-90.3094&z=6",20001
ecu-laratonera-galapagos,[Charles Darwin F.](https://www.darwinfoundation.org/en/),La Ratonera - Galapagos Islands ,ecu,-0.7434,-90.3037,"http://maps.google.com/maps?q=-0.7434,-90.3037&ll=-0.7434,-90.3037&z=6",20001
ecu-playaalemanes-galapagos,[Charles Darwin F.](https://www.darwinfoundation.org/en/),Playa Alemanes - Galapagos Island ,ecu,-0.7529,-90.3113,"http://maps.google.com/maps?q=-0.7529,-90.3113&ll=-0.7529,-90.3113&z=6",20001
ecu-playabrava-galapagos,[Charles Darwin F.](https://www.darwinfoundation.org/en/),Playa Brava - Galapagos Islands ,ecu,-0.7614,-90.335,"http://maps.google.com/maps?q=-0.7614,-90.335&ll=-0.7614,-90.335&z=6",20001
ecu-playamansa-galapagos,[Charles Darwin F.](https://www.darwinfoundation.org/en/),Playa Mansa - Galapagos Islands ,ecu,-0.7634,-90.3404,"http://maps.google.com/maps?q=-0.7634,-90.3404&ll=-0.7634,-90.3404&z=6",20001
ecu-ballenita-elfaro,[RIEAE - U. Guayaquil](https://www.facebook.com/RED-RIEAE-107397151044316),Ballenita - El Faro,ecu,-2.2061,-80.8831,"http://maps.google.com/maps?q=-2.206081413,-80.88314924&ll=-2.206081413,-80.88314924&z=6",40011
ecu-ballenita-labarca,[RIEAE - U. Guayaquil](https://www.facebook.com/RED-RIEAE-107397151044316),Ballenita - La Barca,ecu,-2.1995,-80.8721,"http://maps.google.com/maps?q=-2.199512262,-80.87207899&ll=-2.199512262,-80.87207899&z=6",40011
ecu-tortugabay-galapagos,[Charles Darwin F.](https://www.darwinfoundation.org/en/),Tortuga Bay - Galapagos Islands ,ecu,-0.7619,-90.3304,"http://maps.google.com/maps?q=-0.7619,-90.3304&ll=-0.7619,-90.3304&z=6",20001
mex-yucatan-marinadeyucalpeten,[UNAM](https://www.bdmy.org.mx/),Yucatan - Marina de Yucalpeten ,mex,21.2803,-89.7006,"http://maps.google.com/maps?q=21.2803,-89.7006&ll=21.2803,-89.7006&z=6",40005
per-chimbote,[IMARPE](http://www.imarpe.gob.pe/imarpe/),Bahia de Chimbote,per,-9.128611,-78.596388,"http://maps.google.com/maps?q=-9.128611,-78.596388&ll=-9.128611,-78.596388z=6",40013
ury-barradelchuy,[UNDECIMAR](http://undecimar.fcien.edu.uy/es_ES/),Barra del Chuy ,ury,-33.8109,-53.4461,"http://maps.google.com/maps?q=-33.8109,-53.4461&ll=-33.8109,-53.4461&z=6",40014
usa-alc,[MARINe](https://marine.ucsc.edu/sitepages/alcatrazisland.html),Alcatraz,usa,37.82500076,-122.42194,"http://maps.google.com/maps?q=37.82500076,-122.42194&ll=37.82500076,-122.42194z=6",40003
usa-aleg,[MARINe](https://marine.ucsc.edu/sitepages/alegria.html),Alegria,usa,34.4671402,-120.27738,"http://maps.google.com/maps?q=34.4671402,-120.27738&ll=34.4671402,-120.27738z=6",40003
usa-amn,[MARINe](https://marine.ucsc.edu/sitepages/americancamp.html),American Camp,usa,48.45730972,-123.02222,"http://maps.google.com/maps?q=48.45730972,-123.02222&ll=48.45730972,-123.02222z=6",40003
usa-ancr,[MARINe](https://marine.ucsc.edu/sitepages/catrock.html),Cat Rock,usa,34.00556946,-119.41925,"http://maps.google.com/maps?q=34.00556946,-119.41925&ll=34.00556946,-119.41925z=6",40003
usa-anmw,[MARINe](https://marine.ucsc.edu/sitepages/middlewest.html),Middle West,usa,34.00590134,-119.39649,"http://maps.google.com/maps?q=34.00590134,-119.39649&ll=34.00590134,-119.39649z=6",40003
usa-ansfc,[MARINe](https://marine.ucsc.edu/sitepages/sfrenchyscove.html),S Frenchys Cove,usa,34.00659943,-119.41077,"http://maps.google.com/maps?q=34.00659943,-119.41077&ll=34.00659943,-119.41077z=6",40003
usa-arg,[MARINe](https://marine.ucsc.edu/sitepages/capearago.html),Cape Arago,usa,43.30894089,-124.40077,"http://maps.google.com/maps?q=43.30894089,-124.40077&ll=43.30894089,-124.40077z=6",40003
usa-arho,[MARINe](https://marine.ucsc.edu/sitepages/arroyohondo.html),Arroyo Hondo,usa,34.47343826,-120.1454,"http://maps.google.com/maps?q=34.47343826,-120.1454&ll=34.47343826,-120.1454z=6",40003
usa-asi,[MARINe](https://marine.ucsc.edu/sitepages/asilomar.html),Asilomar,usa,36.6222496,-121.94161,"http://maps.google.com/maps?q=36.6222496,-121.94161&ll=36.6222496,-121.94161z=6",40003
usa-biddeford-biddefordme,[NEU - Helmuth Lab](https://helmuthlab.cos.northeastern.edu/),Biddeford - Biddeford ME ,usa,43.439808,-70.343454,"http://maps.google.com/maps?q=43.439808,-70.343454&ll=43.439808,-70.343454&z=6",40007
usa-bloh,[MARINe](https://marine.ucsc.edu/sitepages/blowhole.html),Blowhole,usa,37.7011795,-123.00383,"http://maps.google.com/maps?q=37.7011795,-123.00383&ll=37.7011795,-123.00383z=6",40003
usa-bml,[MARINe](https://marine.ucsc.edu/sitepages/bodega.html),Bodega,usa,38.31819916,-123.07365,"http://maps.google.com/maps?q=38.31819916,-123.07365&ll=38.31819916,-123.07365z=6",40003
usa-boa,[MARINe](https://marine.ucsc.edu/sitepages/boathouse.html),Boat House,usa,34.55387878,-120.61167,"http://maps.google.com/maps?q=34.55387878,-120.61167&ll=34.55387878,-120.61167z=6",40003
usa-bob,[MARINe](https://marine.ucsc.edu/sitepages/bobcreek.html),Bob Creek,usa,44.24456024,-124.11443,"http://maps.google.com/maps?q=44.24456024,-124.11443&ll=44.24456024,-124.11443z=6",40003
usa-bol,[MARINe](https://marine.ucsc.edu/sitepages/bolinaspoint.html),Bolinas Point,usa,37.90354156,-122.72721,"http://maps.google.com/maps?q=37.90354156,-122.72721&ll=37.90354156,-122.72721z=6",40003
usa-brn,[MARINe](https://marine.ucsc.edu/sitepages/burnthill.html),Burnt Hill,usa,42.22814178,-124.38786,"http://maps.google.com/maps?q=42.22814178,-124.38786&ll=42.22814178,-124.38786z=6",40003
usa-cab1,[MARINe](https://marine.ucsc.edu/sitepages/cabrillo1.html),Cabrillo I,usa,32.66947174,-117.2455,"http://maps.google.com/maps?q=32.66947174,-117.2455&ll=32.66947174,-117.2455z=6",40003
usa-cab2,[MARINe](https://marine.ucsc.edu/sitepages/cabrillo2.html),Cabrillo II,usa,32.66765976,-117.24526,"http://maps.google.com/maps?q=32.66765976,-117.24526&ll=32.66765976,-117.24526z=6",40003
usa-cab3,[MARINe](https://marine.ucsc.edu/sitepages/cabrillo3.html),Cabrillo III,usa,32.6658287,-117.24417,"http://maps.google.com/maps?q=32.6658287,-117.24417&ll=32.6658287,-117.24417z=6",40003
usa-car,[MARINe](https://marine.ucsc.edu/sitepages/carmelpoint.html),Carmel Point,usa,36.54375839,-121.93412,"http://maps.google.com/maps?q=36.54375839,-121.93412&ll=36.54375839,-121.93412z=6",40003
usa-care,[MARINe](https://marine.ucsc.edu/sitepages/cardiffreef.html),Cardiff Reef,usa,32.99983978,-117.27867,"http://maps.google.com/maps?q=32.99983978,-117.27867&ll=32.99983978,-117.27867z=6",40003
usa-carp,[MARINe](https://marine.ucsc.edu/sitepages/carpinteria.html),Carpinteria,usa,34.38703156,-119.51407,"http://maps.google.com/maps?q=34.38703156,-119.51407&ll=34.38703156,-119.51407z=6",40003
usa-cay,[MARINe](https://marine.ucsc.edu/sitepages/cayucos.html),Cayucos,usa,35.44739151,-120.94982,"http://maps.google.com/maps?q=35.44739151,-120.94982&ll=35.44739151,-120.94982z=6",40003
usa-chamberlain-chamberlainme,[NEU - Helmuth Lab](https://helmuthlab.cos.northeastern.edu/),[Chamberlain](http://www.northeastern.edu/helmuthlab/Research/gigapan/USME/USME.html#_ga=2.114804366.804414391.1602182240-113605171.1602182239),usa,43.884304,-69.47609,"http://maps.google.com/maps?q=43.884304,-69.47609&ll=43.884304,-69.47609&z=6",40007
usa-chi,[MARINe](https://marine.ucsc.edu/sitepages/chinarocks.html),China Rocks,usa,36.60615921,-121.95939,"http://maps.google.com/maps?q=36.60615921,-121.95939&ll=36.60615921,-121.95939z=6",40003
usa-chukchi-sea,U. Alaska Fairbanks,Chukchi Sea,usa,70,-171,"http://maps.google.com/maps?q=70,-171&ll=70,-171z=6",40054